OSCAR 7 (AO-7)          
1 07530U 74089B   22104.68353220 -.00000034  00000+0  76388-4 0  9994
2 07530 101.9003  84.3639 0012289 162.5056  10.1128 12.53654184169470
PHASE 3B (AO-10)        
1 14129U 83058B   22104.16157030  .00000183  00000+0  00000+0 0  9993
2 14129  26.4111 106.7210 5988349  64.8926 344.7019  2.05867338264082
UOSAT 2 (UO-11)         
1 14781U 84021B   22104.51415049  .00000846  00000+0  10874-3 0  9994
2 14781  97.6151  94.8790 0008785 161.6529 198.5004 14.83547785 30560
LUSAT (LO-19)           
1 20442U 90005G   22104.63388472  .00000119  00000+0  60234-4 0  9995
2 20442  98.7876  68.5434 0011783   1.9873 358.1355 14.33041087683960
EYESAT A (AO-27)        
1 22825U 93061C   22104.77960268  .00000079  00000+0  48344-4 0  9994
2 22825  98.8941 134.4497 0007583 232.6719 127.3772 14.30157773489058
ITAMSAT (IO-26)         
1 22826U 93061D   22104.81814445  .00000089  00000+0  51987-4 0  9993
2 22826  98.8885 134.3726 0008294 218.3223 141.7370 14.30501312489316
RADIO ROSTO (RS-15)     
1 23439U 94085A   22104.89478740 -.00000037  00000+0  15882-3 0  9990
2 23439  64.8115 248.4125 0167174 283.4415  74.7926 11.27571307124328
JAS-2 (FO-29)           
1 24278U 96046B   22104.84312216 -.00000009  00000+0  24082-4 0  9993
2 24278  98.5236 137.2604 0351358  88.3606 275.7741 13.53113154267002
TECHSAT 1B (GO-32)      
1 25397U 98043D   22104.61756682  .00000045  00000+0  39502-4 0  9991
2 25397  98.8117  54.9386 0000561 351.4588   8.6581 14.23743423234340
ISS (ZARYA)             
1 25544U 98067A   22105.01228729  .00005988  00000+0  11258-3 0  9990
2 25544  51.6446 289.4861 0005045  25.3403  80.4903 15.50058436335380
PCSAT (NO-44)           
1 26931U 01043C   22104.69690888  .00000091  00000+0  66556-4 0  9993
2 26931  67.0513 222.9588 0007843 272.6244  87.3959 14.30682996 72288
SAUDISAT 1C (SO-50)     
1 27607U 02058C   22104.56795588  .00000676  00000+0  11415-3 0  9992
2 27607  64.5533 137.3832 0074541 307.0796  52.3507 14.76004413 38946
CUTE-1 (CO-55)          
1 27844U 03031E   22104.55618611  .00000248  00000+0  13110-3 0  9996
2 27844  98.6812 113.2025 0008701 289.5922  70.4317 14.22413610974824
CUBESAT XI-IV (CO-57)   
1 27848U 03031J   22104.78084387  .00000203  00000+0  11176-3 0  9993
2 27848  98.6859 113.9556 0008705 304.7236  55.3121 14.21975830974637
MOZHAYETS 4 (RS-22)     
1 27939U 03042A   22104.91033357  .00000796  00000+0  14983-3 0  9998
2 27939  98.1799 245.6864 0013726  52.9973 307.2478 14.67242845991726
CUBESAT XI-V            
1 28895U 05043F   22104.62669690  .00000899  00000+0  17958-3 0  9995
2 28895  98.0957 237.0314 0016175 346.5664  13.5105 14.64203505878071
FALCONSAT-3             
1 30776U 07006E   22104.86514466  .00039546  00000+0  71294-3 0  9997
2 30776  35.4324 315.4316 0001143 320.2092  39.8554 15.48746663839707
CUTE-1.7+APD II (CO-65) 
1 32785U 08021C   22104.67653743  .00002114  00000+0  22832-3 0  9993
2 32785  97.6519  77.5805 0014471  85.9152 274.3719 14.89297376756998
DELFI-C3 (DO-64)        
1 32789U 08021G   22104.66027771  .00011231  00000+0  65529-3 0  9992
2 32789  97.3459 133.3225 0011525 174.4013 185.7349 15.12052400762283
SEEDS II (CO-66)        
1 32791U 08021J   22104.48269764  .00003546  00000+0  35238-3 0  9999
2 32791  97.6067  82.9597 0014226  49.3068 310.9385 14.92242121757651
YUBILEINY (RS-30)       
1 32953U 08025A   22104.79746132  .00000021  00000+0  80971-4 0  9996
2 32953  82.5049 223.5017 0019716  42.7928 317.4686 12.43108728630424
KKS-1 (KISEKI)          
1 33499U 09002H   22104.92364730  .00000726  00000+0  11345-3 0  9993
2 33499  98.2272 345.8893 0009563 150.8348 209.3396 14.75901066710876
SWISSCUBE               
1 35932U 09051B   22104.84441845  .00000638  00000+0  15359-3 0  9996
2 35932  98.5771 318.9830 0006448 239.1246 120.9317 14.56764036666870
BEESAT-1                
1 35933U 09051C   22104.86912609  .00000554  00000+0  13470-3 0  9999
2 35933  98.5716 320.6794 0004553 253.3733 106.6965 14.56793251666997
ITUPSAT1                
1 35935U 09051E   22104.84783268  .00000506  00000+0  12643-3 0  9994
2 35935  98.5817 320.7296 0006861 257.2523 102.7907 14.55909859666651
XIWANG-1 (HOPE-1)       
1 36122U 09072B   22104.65638209 -.00000020  00000+0  59606-4 0  9992
2 36122 100.1773  78.3753 0008044 125.0208 235.1661 13.16367599592417
JUGNU                   
1 37839U 11058B   22104.93215583  .00000436  00000+0  90228-4 0  9997
2 37839  19.9599 200.7472 0018792 175.8921 342.8080 14.12766857543145
SRMSAT                  
1 37841U 11058D   22104.81050323  .00000401  00000+0  75143-4 0  9997
2 37841  19.9721 279.6150 0011942   5.0135  24.3631 14.10739816542465
M-CUBED & EXP-1 PRIME   
1 37855U 11061F   22104.68982322  .00008690  00000+0  39676-3 0  9992
2 37855 101.7048 190.1966 0158530 253.0707 105.3077 15.10531499572071
STRAND-1                
1 39090U 13009E   22104.79076536  .00000079  00000+0  42368-4 0  9998
2 39090  98.4096 304.5734 0010331  99.8596 260.3756 14.35268407478265
SOMP                    
1 39134U 13015E   22104.73200824  .00015120  00000+0  57468-3 0  9996
2 39134  64.8613 270.7179 0032725 290.3500  69.4115 15.26490256497120
BEESAT-3                
1 39135U 13015F   22104.83528117  .00009985  00000+0  43184-3 0  9998
2 39135  64.8661 304.9966 0034298 298.4026  61.3647 15.22380504496420
BEESAT-2                
1 39136U 13015G   22104.84467455  .00009594  00000+0  43197-3 0  9997
2 39136  64.8753 312.7491 0011875 289.0330  70.9512 15.21496195496232
ZACUBE-1 (TSHEPISOSAT)  
1 39417U 13066B   22104.70692240  .00001640  00000+0  20730-3 0  9994
2 39417  97.6307  79.1160 0056373 253.1805 106.3221 14.82081797453688
GOMX-1                  
1 39430U 13066Q   22104.72168799  .00001357  00000+0  25166-3 0  9991
2 39430  97.8119  15.5563 0148197 245.7015 112.8650 14.60018615446992
CUBEBUG-2 (LO-74)       
1 39440U 13066AA  22104.70222111  .00002124  00000+0  29528-3 0  9998
2 39440  97.7199  64.9725 0078552 339.5252  20.2815 14.76773866452074
FUNCUBE-1 (AO-73)       
1 39444U 13066AE  22104.70138439  .00001988  00000+0  24400-3 0  9992
2 39444  97.6190  81.5094 0055407 241.4969 118.0659 14.83104495452078
UWE-3                   
1 39446U 13066AG  22104.69849360  .00001897  00000+0  25211-3 0  9994
2 39446  97.6792  71.5518 0067453 297.9432  61.4963 14.79330952451031
SPROUT                  
1 39770U 14029E   22104.74048125  .00007116  00000+0  74195-3 0  9995
2 39770  97.9322 221.3562 0007448 299.0579  60.9849 14.90063352428176
UNISAT-6                
1 40012U 14033C   22104.54043521  .00001186  00000+0  18005-3 0  9993
2 40012  97.6637 295.9204 0057831   7.4579 352.7477 14.74717279420565
DUCHIFAT-1              
1 40021U 14033M   22104.65502898  .00003697  00000+0  36680-3 0  9990
2 40021  98.0067  53.7456 0010996 248.7365 111.2679 14.92359588425180
QB50P1                  
1 40025U 14033R   22104.40673438  .00001921  00000+0  20427-3 0  9996
2 40025  97.9566  41.3411 0010608 268.2763  91.7239 14.90145637424223
NUDT-PHONESAT           
1 40900U 15049B   22104.86910971  .00025379  00000+0  80925-3 0  9994
2 40900  97.4075 122.6551 0011924 144.6794 338.6544 15.32439212364863
ZDPS 2A                 
1 40901U 15049C   22104.86779231  .00011902  00000+0  51564-3 0  9991
2 40901  97.4628 114.0420 0011482 199.2879 280.7763 15.22485266363775
ZDPS 2B                 
1 40902U 15049D   22104.88954030  .00012315  00000+0  53133-3 0  9999
2 40902  97.4696 111.6496 0011465 196.5757 224.7172 15.22618813363759
XW-2A                   
1 40903U 15049E   22104.90961741  .00019823  00000+0  34641-3 0  9994
2 40903  97.1891 163.4509 0010027   2.6877 172.4785 15.50639773369403
KAITUO 1A               
1 40904U 15049F   22104.93626414  .00004305  00000+0  21880-3 0  9993
2 40904  97.4963 108.0855 0012529 225.8911 191.4147 15.17338107363231
2015-049G               
1 40905U 15049G   22104.89470936  .00003721  00000+0  19676-3 0  9996
2 40905  97.5144 105.1994 0013683 229.7896 217.7574 15.16013082362981
XW-2C                   
1 40906U 15049H   22104.93789984  .00006037  00000+0  29702-3 0  9992
2 40906  97.4949 108.8917 0012772 214.0212 170.0620 15.18304968363281
XW-2D                   
1 40907U 15049J   22104.92716392  .00007064  00000+0  34168-3 0  9998
2 40907  97.4940 108.8138 0012416 207.5844 215.2841 15.18841250363323
LILACSAT-2              
1 40908U 15049K   22104.90583833  .00003537  00000+0  19069-3 0  9993
2 40908  97.5170 106.1391 0013981 233.4175 190.8356 15.15354322362868
XW-2E                   
1 40909U 15049L   22104.87069770  .00010507  00000+0  45978-3 0  9992
2 40909  97.4680 113.1599 0012212 188.1950 292.0468 15.22170801363737
XW-2F                   
1 40910U 15049M   22104.78656218  .00010454  00000+0  46434-3 0  9992
2 40910  97.4758 112.1955 0012853 191.1654 343.5191 15.21654410363496
XW-2B                   
1 40911U 15049N   22104.94111096  .00006810  00000+0  33054-3 0  9996
2 40911  97.4925 109.4493 0012192 210.1561 176.1880 15.18738150363219
KAITUO 1B               
1 40912U 15049P   22104.89890042  .00012035  00000+0  49018-3 0  9999
2 40912  97.4404 116.6641 0014206 158.9401 285.6825 15.24541025364066
TIANWANG 1A (TW-1A)     
1 40928U 15051D   22104.92423654  .00034491  00000+0  52222-3 0  9995
2 40928  97.0468 128.3448 0006250 250.0344 156.4049 15.54569589368351
LAPAN-A2                
1 40931U 15052B   22103.61753746  .00001058  00000+0  57946-4 0  9995
2 40931   6.0004 271.5735 0014083 330.3771  29.5830 14.76770380353741
E-ST@R-II               
1 41459U 16025D   22104.86007859  .00018455  00000+0  81885-3 0  9994
2 41459  98.1776 265.3970 0150353 125.1393 236.4009 15.11955696327886
AAUSAT 4                
1 41460U 16025E   22104.87762488  .00026004  00000+0  10485-2 0  9999
2 41460  98.1736 271.0743 0131902 103.0577 258.5380 15.17064199328292
NUSAT-1 (FRESCO)        
1 41557U 16033B   22104.84459112  .00014001  00000+0  44193-3 0  9997
2 41557  97.3838 202.5297 0010750 239.5734 238.3193 15.32905488327630
